0 TECHSAT 1B
1 25397U 98043D   13281.45595966  .00000057  00000-0  43603-4 0  1774
2 25397 098.4313 244.3699 0000962 031.4743 121.5223 14.23361977792054
0 TECHSAT 1B
1 25397U 98043D   13282.84277527  .00000043  00000-0  37307-4 0  1788
2 25397 098.4314 245.6989 0000880 028.9569 026.1772 14.23362667792255
0 TECHSAT 1B
1 25397U 98043D   13283.96481940  .00000076  00000-0  51693-4 0  1799
2 25397 098.4316 246.7741 0000826 028.2425 013.0885 14.23362837792416
0 TECHSAT 1B
1 25397U 98043D   13285.46277389  .00000049  00000-0  40002-4 0  1800
2 25397 098.4319 248.2095 0000724 024.8124 127.8226 14.23363337792625
0 TECHSAT 1B
1 25397U 98043D   13286.78126789  .00000046  00000-0  38618-4 0  1811
2 25397 098.4322 249.4730 0000652 024.4506 040.4398 14.23363688792818
0 TECHSAT 1B
1 25397U 98043D   13287.97260432  .00000096  00000-0  60839-4 0  1823
2 25397 098.4326 250.6145 0000575 020.8435 025.1069 14.23364091792983
0 TECHSAT 1B
1 25397U 98043D   13289.46896344  .00000075  00000-0  51300-4 0  1837
2 25397 098.4330 252.0485 0000491 016.4894 132.6023 14.23364399793197
0 TECHSAT 1B
1 25397U 98043D   13290.72877437  .00000075  00000-0  51442-4 0  1848
2 25397 098.4333 253.2558 0000397 011.7493 109.0761 14.23364753793373
0 TECHSAT 1B
1 25397U 98043D   13291.78238668  .00000079  00000-0  53001-4 0  1850
2 25397 098.4336 254.2656 0000327 006.9913 109.5867 14.23364874793525
0 TECHSAT 1B
1 25397U 98043D   13292.82531332  .00000106  00000-0  65017-4 0  1862
2 25397 098.4337 255.2652 0000271 002.8024 054.8066 14.23364894793670
0 TECHSAT 1B
1 25397U 98043D   13293.94750051  .00000113  00000-0  68202-4 0  1875
2 25397 098.4339 256.3409 0000204 355.2878 049.2601 14.23365242793831
0 TECHSAT 1B
1 25397U 98043D   13295.14632097  .00000114  00000-0  68652-4 0  1889
2 25397 098.4339 257.4900 0000126 352.6984 071.2433 14.23365777794002
